NORAD_CAT_ID,OBJECT_NAME,OBJECT_TYPE,EPOCH,MEAN_MOTION,ECCENTRICITY,INCLINATION,RA_OF_ASC_NODE,ARG_OF_PERICENTER,MEAN_ANOMALY,BSTAR,MEAN_MOTION_DOT,MEAN_MOTION_DDOT,TLE_LINE0,TLE_LINE1,TLE_LINE2,SEMIMAJOR_AXIS,PERIOD,APOGEE,PERIGEE,DECAYED
53856.0,STARLINK-4795,PAYLOAD,2023-11-14 10:12:48,15.08838213,0.0001478,53.2177,123.2275,97.216,262.9,6.496e-05,7.46e-06,0.0,0 STARLINK-4795,1 53856U 22114AQ  23318.42555925  .00000746  00000-0  64960-4 0  9997,2 53856  53.2177 123.2275 0001478  97.2160 262.9000 15.08838213 64818,6917.886,95.438,540.773,538.728,0.0
53856.0,STARLINK-4795,PAYLOAD,2023-11-15 11:38:58,15.08838727,0.0001449,53.2173,118.468,89.8824,270.2334,1.0311e-05,-1.24e-06,0.0,0 STARLINK-4795,1 53856U 22114AQ  23319.48540070 -.00000124  00000-0  10311-4 0  9991,2 53856  53.2173 118.4680 0001449  89.8824 270.2334 15.08838727 64971,6917.884,95.438,540.752,538.747,0.0
53856.0,STARLINK-4795,PAYLOAD,2023-11-15 13:14:21,15.08840076,0.0001223,53.2177,118.1693,91.783,268.3302,2.6332e-05,1.31e-06,0.0,0 STARLINK-4795,1 53856U 22114AQ  23319.55163944  .00000131  00000-0  26332-4 0  9997,2 53856  53.2177 118.1693 0001223  91.7830 268.3302 15.08840076 65520,6917.88,95.438,540.591,538.899,0.0
53856.0,STARLINK-4795,PAYLOAD,2023-11-15 18:00:31,15.08839028,0.0001118,53.2176,117.2783,86.2293,273.8827,8.6969e-05,1.097e-05,0.0,0 STARLINK-4795,1 53856U 22114AQ  23319.75036069  .00001097  00000-0  86969-4 0  9990,2 53856  53.2176 117.2783 0001118  86.2293 273.8827 15.08839028 65555,6917.883,95.438,540.522,538.975,0.0
53856.0,STARLINK-4795,PAYLOAD,2023-11-17 03:23:37,15.08837199,0.0001335,53.217,111.0344,90.0624,270.0522,1.7845e-05,-4e-08,0.0,0 STARLINK-4795,1 53856U 22114AQ  23321.14140522 -.00000004  00000-0  17845-4 0  9991,2 53856  53.2170 111.0344 0001335  90.0624 270.0522 15.08837199 65228,6917.889,95.438,540.677,538.83,0.0
53856.0,STARLINK-4795,PAYLOAD,2023-11-17 09:45:09,15.08838491,0.0001141,53.2172,109.8449,90.9114,269.2009,4.7902e-05,4.75e-06,0.0,0 STARLINK-4795,1 53856U 22114AQ  23321.40636520  .00000475  00000-0  47902-4 0  9996,2 53856  53.2172 109.8449 0001141  90.9114 269.2009 15.08838491 65809,6917.885,95.438,540.539,538.961,0.0
53856.0,STARLINK-4795,PAYLOAD,2023-11-17 16:06:42,15.08839854,0.0001144,53.2172,108.6556,90.2788,269.8336,5.6409e-05,6.1e-06,0.0,0 STARLINK-4795,1 53856U 22114AQ  23321.67132415  .00000610  00000-0  56409-4 0  9992,2 53856  53.2172 108.6556 0001144  90.2788 269.8336 15.08839854 65845,6917.881,95.438,540.537,538.954,0.0
53856.0,STARLINK-4795,PAYLOAD,2023-11-18 15:57:29,15.08839658,0.0001233,53.2169,104.1948,89.0123,271.101,4.11e-05,3.66e-06,0.0,0 STARLINK-4795,1 53856U 22114AQ  23322.66492487  .00000366  00000-0  41100-4 0  9990,2 53856  53.2169 104.1948 0001233  89.0123 271.1010 15.08839658 65459,6917.881,95.438,540.599,538.893,0.0
53856.0,STARLINK-4795,PAYLOAD,2023-11-19 12:37:30,15.08842315,0.0001334,53.2169,100.3289,87.8207,272.2938,4.1537e-05,3.73e-06,0.0,0 STARLINK-4795,1 53856U 22114AQ  23323.52604376  .00000373  00000-0  41537-4 0  9990,2 53856  53.2169 100.3289 0001334  87.8207 272.2938 15.08842315 66126,6917.873,95.437,540.661,538.815,0.0
53856.0,STARLINK-4795,PAYLOAD,2023-11-19 18:59:02,15.08845663,0.0001406,53.2173,99.1394,87.9318,272.1835,6.4345e-05,7.36e-06,0.0,0 STARLINK-4795,1 53856U 22114AQ  23323.79100046  .00000736  00000-0  64345-4 0  9999,2 53856  53.2173  99.1394 0001406  87.9318 272.1835 15.08845663 65625,6917.863,95.437,540.701,538.755,0.0
53856.0,STARLINK-4795,PAYLOAD,2023-11-20 09:17:31,15.08835696,0.0001764,53.2175,96.4617,91.5317,268.5877,8.2023e-05,1.017e-05,0.0,0 STARLINK-4795,1 53856U 22114AQ  23324.38716484  .00001017  00000-0  82023-4 0  9990,2 53856  53.2175  96.4617 0001764  91.5317 268.5877 15.08835696 65712,6917.894,95.438,540.979,538.538,0.0
53856.0,STARLINK-4795,PAYLOAD,2023-11-20 14:03:40,15.08841872,0.0001464,53.2189,95.5694,102.4752,257.6404,5.6362e-05,6.09e-06,0.0,0 STARLINK-4795,1 53856U 22114AQ  23324.58588188  .00000609  00000-0  56362-4 0  9993,2 53856  53.2189  95.5694 0001464 102.4752 257.6404 15.08841872 66285,6917.875,95.437,540.752,538.727,0.0
53856.0,STARLINK-4795,PAYLOAD,2023-11-20 15:39:03,15.08843343,0.0001297,53.218,95.2737,87.3075,272.8066,7.2474e-05,8.66e-06,0.0,0 STARLINK-4795,1 53856U 22114AQ  23324.65212109  .00000866  00000-0  72474-4 0  9995,2 53856  53.2180  95.2737 0001297  87.3075 272.8066 15.08843343 66293,6917.87,95.437,540.632,538.838,0.0
53856.0,STARLINK-4795,PAYLOAD,2023-11-21 09:08:18,15.08839631,0.0001352,53.2182,92.0038,87.8314,272.2833,1.329e-05,-7.6e-07,0.0,0 STARLINK-4795,1 53856U 22114AQ  23325.38076529 -.00000076  00000-0  13290-4 0  9995,2 53856  53.2182  92.0038 0001352  87.8314 272.2833 15.08839631 65860,6917.882,95.438,540.682,538.811,0.0
53856.0,STARLINK-4795,PAYLOAD,2023-11-21 13:54:27,15.08843718,0.0001371,53.2182,91.112,87.7938,272.3212,4.8725e-05,4.88e-06,0.0,0 STARLINK-4795,1 53856U 22114AQ  23325.57948178  .00000488  00000-0  48725-4 0  9991,2 53856  53.2182  91.1120 0001371  87.7938 272.3212 15.08843718 66431,6917.869,95.437,540.682,538.786,0.0
53856.0,STARLINK-4795,PAYLOAD,2023-11-22 12:09:50,15.08843906,0.0001392,53.218,86.9469,97.2415,262.8735,5.596e-05,6.03e-06,0.0,0 STARLINK-4795,1 53856U 22114AQ  23326.50683989  .00000603  00000-0  55960-4 0  9999,2 53856  53.2180  86.9469 0001392  97.2415 262.8735 15.08843906 66035,6917.868,95.437,540.696,538.77,0.0
53856.0,STARLINK-4795,PAYLOAD,2023-11-22 13:45:13,15.08846607,0.000146,53.2178,86.6492,98.6255,261.4903,4.4103e-05,4.14e-06,0.0,0 STARLINK-4795,1 53856U 22114AQ  23326.57307847  .00000414  00000-0  44103-4 0  9999,2 53856  53.2178  86.6492 0001460  98.6255 261.4903 15.08846607 66581,6917.86,95.437,540.735,538.715,0.0
53856.0,STARLINK-4795,PAYLOAD,2023-11-23 12:00:39,15.08832416,0.0001941,53.2184,82.4877,113.9374,246.1822,-3.6506e-05,-8.69e-06,0.0,0 STARLINK-4795,1 53856U 22114AQ  23327.50045363 -.00000869  00000-0 -36506-4 0  9999,2 53856  53.2184  82.4877 0001941 113.9374 246.1822 15.08832416 66185,6917.904,95.438,541.111,538.426,0.0
53856.0,STARLINK-4795,PAYLOAD,2023-11-23 13:36:02,15.0883152,0.0001782,53.2188,82.1914,105.9226,254.1963,-4.3605e-05,-9.82e-06,0.0,0 STARLINK-4795,1 53856U 22114AQ  23327.56669530 -.00000982  00000-0 -43605-4 0  9997,2 53856  53.2188  82.1914 0001782 105.9226 254.1963 15.08831520 66739,6917.906,95.438,541.004,538.539,0.0
53856.0,STARLINK-4795,PAYLOAD,2023-11-23 18:22:11,15.08835483,0.0001675,53.2182,81.2963,107.7488,252.3688,-3.2415e-06,-3.4e-06,0.0,0 STARLINK-4795,1 53856U 22114AQ  23327.76541207 -.00000340  00000-0 -32415-5 0  9995,2 53856  53.2182  81.2963 0001675 107.7488 252.3688 15.08835483 66767,6917.894,95.438,540.918,538.6,0.0
53856.0,STARLINK-4795,PAYLOAD,2023-11-24 13:26:49,15.08838205,0.0001844,53.2191,77.7283,99.8184,260.3016,5.6983e-05,6.19e-06,0.0,0 STARLINK-4795,1 53856U 22114AQ  23328.56029364  .00000619  00000-0  56983-4 0  9991,2 53856  53.2191  77.7283 0001844  99.8184 260.3016 15.08838205 66886,6917.886,95.438,541.027,538.475,0.0
53856.0,STARLINK-4795,PAYLOAD,2023-11-24 15:02:12,15.08841428,0.0001855,53.2192,77.4305,96.7268,263.3935,4.5858e-05,4.42e-06,0.0,0 STARLINK-4795,1 53856U 22114AQ  23328.62653256  .00000442  00000-0  45858-4 0  9994,2 53856  53.2192  77.4305 0001855  96.7268 263.3935 15.08841428 66356,6917.876,95.437,541.024,538.458,0.0
53856.0,STARLINK-4795,PAYLOAD,2023-11-25 13:17:36,15.08845777,0.0001643,53.2181,73.2725,96.3654,263.7525,0.00018107,2.595e-05,0.0,0 STARLINK-4795,1 53856U 22114AQ  23329.55389124  .00002595  00000-0  18107-3 0  9994,2 53856  53.2181  73.2725 0001643  96.3654 263.7525 15.08845777 67030,6917.863,95.437,540.864,538.591,0.0
53856.0,STARLINK-4795,PAYLOAD,2023-11-25 14:52:59,15.08858546,0.0001617,53.2191,72.9697,93.0429,267.0748,0.00044395,6.788e-05,0.0,0 STARLINK-4795,1 53856U 22114AQ  23329.62012763  .00006788  00000-0  44395-3 0  9990,2 53856  53.2191  72.9697 0001617  93.0429 267.0748 15.08858546 67043,6917.824,95.436,540.807,538.57,0.0
53856.0,STARLINK-4795,PAYLOAD,2023-11-26 11:32:57,15.08891589,0.0001429,53.2181,69.1099,84.0538,276.0617,0.00070566,0.00010976,0.0,0 STARLINK-4795,1 53856U 22114AQ  23330.48122379  .00010976  00000-0  70566-3 0  9994,2 53856  53.2181  69.1099 0001429  84.0538 276.0617 15.08891589 66631,6917.723,95.434,540.576,538.599,0.0
53856.0,STARLINK-4795,PAYLOAD,2023-11-26 13:08:23,15.08832783,0.0001669,53.2184,68.8129,107.5117,252.6057,-0.00019224,-3.346e-05,0.0,0 STARLINK-4795,1 53856U 22114AQ  23330.54749033 -.00003346  00000-0 -19224-3 0  9992,2 53856  53.2184  68.8129 0001669 107.5117 252.6057 15.08832783 67184,6917.902,95.438,540.922,538.613,0.0
53856.0,STARLINK-4795,PAYLOAD,2023-11-27 12:59:10,15.08838276,0.0001714,53.2199,64.3505,87.5394,272.5794,-0.00017936,-3.141e-05,0.0,0 STARLINK-4795,1 53856U 22114AQ  23331.54109007 -.00003141  00000-0 -17936-3 0  9995,2 53856  53.2199  64.3505 0001714  87.5394 272.5794 15.08838276 67333,6917.886,95.438,540.936,538.565,0.0
53856.0,STARLINK-4795,PAYLOAD,2023-11-28 11:14:33,15.08848954,0.0001521,53.2197,60.1885,92.4219,267.6947,-0.00021652,-3.733e-05,0.0,0 STARLINK-4795,1 53856U 22114AQ  23332.46844620 -.00003733  00000-0 -21652-3 0  9991,2 53856  53.2197  60.1885 0001521  92.4219 267.6947 15.08848954 66937,6917.853,95.437,540.77,538.666,0.0
53856.0,STARLINK-4795,PAYLOAD,2023-11-28 12:49:56,15.08856409,0.0001546,53.2195,59.8908,105.5781,254.5382,-7.8098e-05,-1.531e-05,0.0,0 STARLINK-4795,1 53856U 22114AQ  23332.53468270 -.00001531  00000-0 -78098-4 0  9993,2 53856  53.2195  59.8908 0001546 105.5781 254.5382 15.08856409 67486,6917.83,95.437,540.765,538.626,0.0
53856.0,STARLINK-4795,PAYLOAD,2023-11-29 11:05:21,15.08850577,0.0001793,53.2186,55.7239,116.705,243.4126,0.00034407,5.194e-05,0.0,0 STARLINK-4795,1 53856U 22114AQ  23333.46205047  .00005194  00000-0  34407-3 0  9999,2 53856  53.2186  55.7239 0001793 116.7050 243.4126 15.08850577 67084,6917.848,95.437,540.953,538.473,0.0
